[{"OBJECT_NAME":"STARLINK-30477","OBJECT_ID":"2023-146X","EPOCH":"2026-03-09T01:38:18.250656","MEAN_MOTION":15.27558432,"ECCENTRICITY":0.0001519,"INCLINATION":42.9994,"RA_OF_ASC_NODE":314.0913,"ARG_OF_PERICENTER":268.5622,"MEAN_ANOMALY":91.5056,"EPHEMERIS_TYPE":0,"CLASSIFICATION_TYPE":"U","NORAD_CAT_ID":57912,"ELEMENT_SET_NO":999,"REV_AT_EPOCH":13700,"BSTAR":-0.00024319354,"MEAN_MOTION_DOT":-6.944e-5,"MEAN_MOTION_DDOT":0},{"OBJECT_NAME":"BRO-11","OBJECT_ID":"2023-174J","EPOCH":"2026-03-09T23:01:09.890400","MEAN_MOTION":15.26267731,"ECCENTRICITY":0.00104518,"INCLINATION":97.3961,"RA_OF_ASC_NODE":146.7679,"ARG_OF_PERICENTER":189.9892,"MEAN_ANOMALY":170.1141,"EPHEMERIS_TYPE":0,"CLASSIFICATION_TYPE":"U","NORAD_CAT_ID":58264,"ELEMENT_SET_NO":999,"REV_AT_EPOCH":12961,"BSTAR":0.00032296323,"MEAN_MOTION_DOT":8.313e-5,"MEAN_MOTION_DDOT":0}]
